{"fetched_at":"2026-07-16T17:46:34.847Z","source":"https://celestrak.org/NORAD/elements/gp.php?NAME=HULIANWANG&FORMAT=JSON","constellation":"guowang","records":[{"OBJECT_NAME":"HULIANWANG DIGUI-140","OBJECT_ID":"2026-007D","EPOCH":"2026-07-15T17:58:45.002208","CLASSIFICATION_TYPE":"U","MEAN_MOTION":13.29326037,"ECCENTRICITY":0.00008767,"INCLINATION":50.0071,"RA_OF_ASC_NODE":343.6017,"ARG_OF_PERICENTER":120.2635,"MEAN_ANOMALY":239.8324,"EPHEMERIS_TYPE":0,"NORAD_CAT_ID":67438,"ELEMENT_SET_NO":999,"REV_AT_EPOCH":2458,"BSTAR":0.000011809117,"MEAN_MOTION_DOT":-0.00000119,"MEAN_MOTION_DDOT":0},{"OBJECT_NAME":"HULIANWANG DIGUI-141","OBJECT_ID":"2026-007E","EPOCH":"2026-07-15T18:58:50.736864","CLASSIFICATION_TYPE":"U","MEAN_MOTION":13.29326848,"ECCENTRICITY":0.00008605,"INCLINATION":50.0065,"RA_OF_ASC_NODE":343.1481,"ARG_OF_PERICENTER":117.6547,"MEAN_ANOMALY":242.4412,"EPHEMERIS_TYPE":0,"NORAD_CAT_ID":67439,"ELEMENT_SET_NO":999,"REV_AT_EPOCH":2459,"BSTAR":0.000036625369,"MEAN_MOTION_DOT":-0.00000107,"MEAN_MOTION_DDOT":0},{"OBJECT_NAME":"HULIANWANG DIGUI-142","OBJECT_ID":"2026-007F","EPOCH":"2026-07-15T18:46:51.673728","CLASSIFICATION_TYPE":"U","MEAN_MOTION":13.29326564,"ECCENTRICITY":0.00008871,"INCLINATION":50.0138,"RA_OF_ASC_NODE":343.22,"ARG_OF_PERICENTER":117.6518,"MEAN_ANOMALY":242.4444,"EPHEMERIS_TYPE":0,"NORAD_CAT_ID":67440,"ELEMENT_SET_NO":999,"REV_AT_EPOCH":2459,"BSTAR":0.000027349614,"MEAN_MOTION_DOT":-0.00000111,"MEAN_MOTION_DDOT":0},{"OBJECT_NAME":"HULIANWANG DIGUI-143","OBJECT_ID":"2026-007G","EPOCH":"2026-07-15T18:34:53.788224","CLASSIFICATION_TYPE":"U","MEAN_MOTION":13.29324955,"ECCENTRICITY":0.00007313,"INCLINATION":50.0122,"RA_OF_ASC_NODE":343.1484,"ARG_OF_PERICENTER":120.1401,"MEAN_ANOMALY":239.9544,"EPHEMERIS_TYPE":0,"NORAD_CAT_ID":67441,"ELEMENT_SET_NO":999,"REV_AT_EPOCH":2459,"BSTAR":0.000025049254,"MEAN_MOTION_DOT":-0.00000112,"MEAN_MOTION_DDOT":0},{"OBJECT_NAME":"HULIANWANG DIGUI-144","OBJECT_ID":"2026-007H","EPOCH":"2026-07-15T09:21:18.200736","CLASSIFICATION_TYPE":"U","MEAN_MOTION":13.29329273,"ECCENTRICITY":0.00008854,"INCLINATION":50.0107,"RA_OF_ASC_NODE":344.4365,"ARG_OF_PERICENTER":124.8257,"MEAN_ANOMALY":235.2698,"EPHEMERIS_TYPE":0,"NORAD_CAT_ID":67442,"ELEMENT_SET_NO":999,"REV_AT_EPOCH":2454,"BSTAR":0.000040917017,"MEAN_MOTION_DOT":-0.00000105,"MEAN_MOTION_DDOT":0},{"OBJECT_NAME":"HULIANWANG DIGUI-145","OBJECT_ID":"2026-007J","EPOCH":"2026-07-16T03:12:07.893216","CLASSIFICATION_TYPE":"U","MEAN_MOTION":13.29325778,"ECCENTRICITY":0.00008381,"INCLINATION":50.0111,"RA_OF_ASC_NODE":341.7035,"ARG_OF_PERICENTER":121.2447,"MEAN_ANOMALY":238.8508,"EPHEMERIS_TYPE":0,"NORAD_CAT_ID":67443,"ELEMENT_SET_NO":999,"REV_AT_EPOCH":2464,"BSTAR":0.000018242342,"MEAN_MOTION_DOT":-0.00000116,"MEAN_MOTION_DDOT":0},{"OBJECT_NAME":"HULIANWANG DIGUI-146","OBJECT_ID":"2026-013A","EPOCH":"2026-07-16T02:28:23.095776","CLASSIFICATION_TYPE":"U","MEAN_MOTION":13.29325286,"ECCENTRICITY":0.00013376,"INCLINATION":50.007,"RA_OF_ASC_NODE":252.2002,"ARG_OF_PERICENTER":221.2915,"MEAN_ANOMALY":138.7857,"EPHEMERIS_TYPE":0,"NORAD_CAT_ID":67522,"ELEMENT_SET_NO":999,"REV_AT_EPOCH":2389,"BSTAR":0.000088701562,"MEAN_MOTION_DOT":-8.3e-7,"MEAN_MOTION_DDOT":0},{"OBJECT_NAME":"HULIANWANG DIGUI-147","OBJECT_ID":"2026-013B","EPOCH":"2026-07-16T02:16:08.818464","CLASSIFICATION_TYPE":"U","MEAN_MOTION":13.29328834,"ECCENTRICITY":0.0001251,"INCLINATION":50.004,"RA_OF_ASC_NODE":252.1082,"ARG_OF_PERICENTER":222.035,"MEAN_ANOMALY":138.0427,"EPHEMERIS_TYPE":0,"NORAD_CAT_ID":67523,"ELEMENT_SET_NO":999,"REV_AT_EPOCH":2389,"BSTAR":0.000077302622,"MEAN_MOTION_DOT":-8.8e-7,"MEAN_MOTION_DDOT":0},{"OBJECT_NAME":"HULIANWANG DIGUI-148","OBJECT_ID":"2026-013C","EPOCH":"2026-07-15T09:49:45.043104","CLASSIFICATION_TYPE":"U","MEAN_MOTION":13.29326702,"ECCENTRICITY":0.00012949,"INCLINATION":50.0082,"RA_OF_ASC_NODE":254.5541,"ARG_OF_PERICENTER":218.3476,"MEAN_ANOMALY":141.7304,"EPHEMERIS_TYPE":0,"NORAD_CAT_ID":67524,"ELEMENT_SET_NO":999,"REV_AT_EPOCH":2380,"BSTAR":0.000077766398,"MEAN_MOTION_DOT":-8.8e-7,"MEAN_MOTION_DDOT":0},{"OBJECT_NAME":"HULIANWANG DIGUI-149","OBJECT_ID":"2026-013D","EPOCH":"2026-07-16T03:40:30.236736","CLASSIFICATION_TYPE":"U","MEAN_MOTION":13.29331413,"ECCENTRICITY":0.00014981,"INCLINATION":50.0075,"RA_OF_ASC_NODE":251.8068,"ARG_OF_PERICENTER":223.3972,"MEAN_ANOMALY":136.6783,"EPHEMERIS_TYPE":0,"NORAD_CAT_ID":67525,"ELEMENT_SET_NO":999,"REV_AT_EPOCH":2390,"BSTAR":0.000038184671,"MEAN_MOTION_DOT":-0.00000106,"MEAN_MOTION_DDOT":0},{"OBJECT_NAME":"HULIANWANG DIGUI-150","OBJECT_ID":"2026-013E","EPOCH":"2026-07-15T12:50:24.724032","CLASSIFICATION_TYPE":"U","MEAN_MOTION":13.29325776,"ECCENTRICITY":0.0001284,"INCLINATION":50.0036,"RA_OF_ASC_NODE":253.8184,"ARG_OF_PERICENTER":220.1084,"MEAN_ANOMALY":139.9693,"EPHEMERIS_TYPE":0,"NORAD_CAT_ID":67526,"ELEMENT_SET_NO":999,"REV_AT_EPOCH":2384,"BSTAR":0.00012365,"MEAN_MOTION_DOT":-6.7e-7,"MEAN_MOTION_DDOT":0},{"OBJECT_NAME":"HULIANWANG DIGUI-151","OBJECT_ID":"2026-013F","EPOCH":"2026-07-15T13:02:23.654976","CLASSIFICATION_TYPE":"U","MEAN_MOTION":13.29327902,"ECCENTRICITY":0.00012701,"INCLINATION":50.0086,"RA_OF_ASC_NODE":253.928,"ARG_OF_PERICENTER":219.0463,"MEAN_ANOMALY":141.0317,"EPHEMERIS_TYPE":0,"NORAD_CAT_ID":67527,"ELEMENT_SET_NO":999,"REV_AT_EPOCH":2382,"BSTAR":0.00010766214,"MEAN_MOTION_DOT":-7.4e-7,"MEAN_MOTION_DDOT":0},{"OBJECT_NAME":"HULIANWANG DIGUI-152","OBJECT_ID":"2026-013G","EPOCH":"2026-07-16T04:52:34.844448","CLASSIFICATION_TYPE":"U","MEAN_MOTION":13.29332509,"ECCENTRICITY":0.0001255,"INCLINATION":50.0027,"RA_OF_ASC_NODE":251.3376,"ARG_OF_PERICENTER":224.1568,"MEAN_ANOMALY":135.9204,"EPHEMERIS_TYPE":0,"NORAD_CAT_ID":67528,"ELEMENT_SET_NO":999,"REV_AT_EPOCH":2391,"BSTAR":0.000082153621,"MEAN_MOTION_DOT":-8.6e-7,"MEAN_MOTION_DDOT":0},{"OBJECT_NAME":"HULIANWANG DIGUI-153","OBJECT_ID":"2026-013H","EPOCH":"2026-07-16T04:40:41.450880","CLASSIFICATION_TYPE":"U","MEAN_MOTION":13.29323831,"ECCENTRICITY":0.00012627,"INCLINATION":50.0028,"RA_OF_ASC_NODE":251.2973,"ARG_OF_PERICENTER":225.6022,"MEAN_ANOMALY":134.4746,"EPHEMERIS_TYPE":0,"NORAD_CAT_ID":67529,"ELEMENT_SET_NO":999,"REV_AT_EPOCH":2390,"BSTAR":0.000072684913,"MEAN_MOTION_DOT":-9e-7,"MEAN_MOTION_DDOT":0},{"OBJECT_NAME":"HULIANWANG DIGUI-154","OBJECT_ID":"2026-013J","EPOCH":"2026-07-16T04:28:30.460224","CLASSIFICATION_TYPE":"U","MEAN_MOTION":13.29332322,"ECCENTRICITY":0.00012529,"INCLINATION":50.0053,"RA_OF_ASC_NODE":251.2927,"ARG_OF_PERICENTER":223.0922,"MEAN_ANOMALY":136.9852,"EPHEMERIS_TYPE":0,"NORAD_CAT_ID":67530,"ELEMENT_SET_NO":999,"REV_AT_EPOCH":2390,"BSTAR":0.000077579904,"MEAN_MOTION_DOT":-8.8e-7,"MEAN_MOTION_DDOT":0},{"OBJECT_NAME":"HULIANWANG DIGUI-155","OBJECT_ID":"2026-047A","EPOCH":"2026-07-16T07:45:53.030016","CLASSIFICATION_TYPE":"U","MEAN_MOTION":13.29333874,"ECCENTRICITY":0.00009229,"INCLINATION":50.0046,"RA_OF_ASC_NODE":311.8859,"ARG_OF_PERICENTER":205.4166,"MEAN_ANOMALY":154.6661,"EPHEMERIS_TYPE":0,"NORAD_CAT_ID":68129,"ELEMENT_SET_NO":999,"REV_AT_EPOCH":1694,"BSTAR":0.000057034003,"MEAN_MOTION_DOT":-9.8e-7,"MEAN_MOTION_DDOT":0}]}
